TDRS 3                  
1 19548U 88091B   22047.16698579 -.00000291  00000+0  00000+0 0  9990
2 19548  13.8003 352.2766 0041062 331.5361 193.4659  1.00266557109504
HST                     
1 20580U 90037B   22046.89433564  .00001617  00000+0  86032-4 0  9997
2 20580  28.4691 253.9317 0002609 162.1928 222.2746 15.10040013547829
TDRS 5                  
1 21639U 91054B   22047.52114581  .00000092  00000+0  00000+0 0  9991
2 21639  14.2451   5.6044 0027555 351.8849 169.1153  1.00266287111855
TDRS 6                  
1 22314U 93003B   22047.16683521 -.00000287  00000+0  00000+0 0  9990
2 22314  14.1221   8.8361 0007470  92.6571  58.8451  1.00274088106513
TDRS 7                  
1 23613U 95035B   22047.39066580 -.00000193  00000+0  00000+0 0  9991
2 23613  14.0217 359.5169 0027892  41.1536 331.1254  1.00273644 97291
ISS (ZARYA)             
1 25544U 98067A   22047.73152049  .00007798  00000+0  14545-3 0  9998
2 25544  51.6427 213.1144 0005767 136.1669 236.9068 15.49802462326501
LANDSAT 7               
1 25682U 99020A   22047.13477846  .00000127  00000+0  37773-4 0  9998
2 25682  97.9986  99.9128 0001912 100.4437 259.6947 14.57224300214886
TERRA                   
1 25994U 99068A   22046.86913436  .00000188  00000+0  51659-4 0  9991
2 25994  98.1503 121.5104 0001188  94.2632 356.5087 14.57146268178795
TDRS 8                  
1 26388U 00034A   22046.52502889 -.00000225  00000+0  00000+0 0  9995
2 26388  10.1753  43.3903 0020821 328.6560  51.4007  1.00264333 79310
TIMED                   
1 26998U 01055B   22047.47143093  .00000553  00000+0  63596-4 0  9996
2 26998  74.0732 160.6269 0000627 318.0685  42.0448 14.88465986 95145
TDRS 9                  
1 27389U 02011A   22046.51209230 -.00000285  00000+0  00000+0 0  9993
2 27389   8.7615  61.9263 0028246 292.4393 273.0858  1.00277921 74563
AQUA                    
1 27424U 02022A   22047.08477295  .00000344  00000+0  86506-4 0  9991
2 27424  98.2360 350.2262 0000653  88.0063 282.4295 14.57141420 52556
TDRS 10                 
1 27566U 02055A   22046.76556208  .00000093  00000+0  00000+0 0  9991
2 27566   7.9813  50.6333 0008783 316.7597 242.8849  1.00277720 70369
SORCE                   
1 27651U 03004A   22047.06047140  .00000761  00000+0  92146-4 0  9994
2 27651  39.9944 175.1181 0023766 337.0992  22.8736 14.89566162 34982
AURA                    
1 28376U 04026A   22046.88232728  .00000353  00000+0  88422-4 0  9990
2 28376  98.2236 351.9817 0001302  87.3176 272.8172 14.57114756935524
SWIFT                   
1 28485U 04047A   22047.46415372  .00002672  00000+0  14945-3 0  9991
2 28485  20.5577  79.1880 0010702 203.4614 156.5332 15.05588345945364
THEMIS A                
1 30580U 07004A   22046.55600277 -.00000600  00000+0 -64799-2 0  9997
2 30580  15.4880 356.4507 8389713 142.3323 326.6396  0.87833591 27368
THEMIS D                
1 30797U 07004D   22046.64704524 -.00000571  00000+0  00000+0 0  9995
2 30797  11.7067 345.9616 8360271 155.5333   4.7830  0.87836542 27167
THEMIS E                
1 30798U 07004E   22045.54116025 -.00000633  00000+0  00000+0 0  9996
2 30798  12.1323 358.0852 8345210 145.7587   2.7702  0.87839941 51993
AIM                     
1 31304U 07015A   22046.73623697  .00004036  00000+0  21538-3 0  9995
2 31304  97.8596 321.5857 0006735  77.8848 282.3138 15.15738461812741
FGRST (GLAST)           
1 33053U 08029A   22046.93352070  .00001278  00000+0  55838-4 0  9996
2 33053  25.5823 275.5615 0011973 211.1995 148.7830 15.11811441755286
WISE                    
1 36119U 09071A   22046.83660954  .00003461  00000+0  11435-3 0  9992
2 36119  97.2567  83.7161 0003398  48.3289 311.8243 15.32040658676871
TDRS 11                 
1 39070U 13004A   22046.83675267  .00000085  00000+0  00000+0 0  9996
2 39070   3.0468 342.7791 0005614  43.5391 246.2400  1.00271327 30820
TDRS 12                 
1 39504U 14004A   22047.32351838 -.00000263  00000+0  00000+0 0  9998
2 39504   3.9679 345.2546 0002176  67.7779 168.8509  1.00271337 29580
GPM-CORE                
1 39574U 14009C   22046.79943142  .00006864  00000+0  10146-3 0  9993
2 39574  65.0022 242.4591 0010971 285.9894  74.0044 15.56139074452679
MMS 1                   
1 40482U 15011A   22035.39583333 -.00001917  00000+0  00000+0 0  9992
2 40482  33.3441 111.0118 8551655  44.2353 166.2437  0.28444681 12927
MMS 2                   
1 40483U 15011B   22035.39583333 -.00001917  00000+0  00000+0 0  9993
2 40483  33.3423 111.0150 8551071  44.2411 166.2162  0.28444626 12981
MMS 3                   
1 40484U 15011C   22035.39583333 -.00001918  00000+0  00000+0 0  9995
2 40484  33.3466 111.0642 8555299  44.2285 166.2535  0.28449204 12666
MMS 4                   
1 40485U 15011D   22021.20833333 -.00001550  00000+0  00000+0 0  9991
2 40485  33.3349 111.3679 8526881  43.4204 156.2432  0.28428872 12839
TDRS 13                 
1 42915U 17047A   22046.65379146 -.00000094  00000+0  00000+0 0  9997
2 42915   4.6504 332.4568 0014876  99.3791 297.4994  1.00271683 16488
JPSS-1                  
1 43013U 17073A   22047.48286271  .00000016  00000+0  28295-4 0  9998
2 43013  98.7463 347.6909 0001467  75.9866 284.1473 14.19528833220060
